{
  "type": "FeatureCollection",
  "features": [
    {
      "type": "Feature",
      "properties": {
        "norad_id": 66555,
        "name": "ELECTRON KICK STAGE R/B",
        "group": "last-30-days",
        "lat": 25.75611804010475,
        "lon": -161.61189774114007,
        "alt_km": 462.11080700222374,
        "timestamp": "2025-12-13T18:50:03.172604+00:00",
        "meta_object_name": "ELECTRON KICK STAGE R/B",
        "meta_object_id": "2025-267B",
        "meta_epoch": "2025-12-13T07:16:59.719008",
        "meta_mean_motion": 15.32855871,
        "meta_eccentricity": 0.00065265,
        "meta_inclination": 42.0199,
        "meta_ra_of_asc_node": 53.5743,
        "meta_arg_of_pericenter": 57.5282,
        "meta_mean_anomaly": 302.6186,
        "meta_ephemeris_type": 0,
        "meta_classification_type": "U",
        "meta_norad_cat_id": 66555,
        "meta_element_set_no": 999,
        "meta_rev_at_epoch": 349,
        "meta_bstar": 0.001242209,
        "meta_mean_motion_dot": 0.0004027,
        "meta_mean_motion_ddot": 0,
        "tle_line1": "1 66555U 25267B   25347.30346897  .00040270  00000+0  12422-2 0  9995",
        "tle_line2": "2 66555  42.0199  53.5743 0006526  57.5282 302.6186 15.32855871  3496"
      },
      "geometry": {
        "type": "Point",
        "coordinates": [
          -161.61189774114007,
          25.75611804010475
        ]
      }
    },
    {
      "type": "Feature",
      "properties": {
        "norad_id": 66557,
        "name": "STARLINK-35699",
        "group": "last-30-days",
        "lat": 0.4118835368275345,
        "lon": -65.35666991072979,
        "alt_km": 413.77597500363663,
        "timestamp": "2025-12-13T18:50:03.172615+00:00",
        "meta_object_name": "STARLINK-35699",
        "meta_object_id": "2025-268A",
        "meta_epoch": "2025-12-13T07:14:38.177664",
        "meta_mean_motion": 15.50660563,
        "meta_eccentricity": 0.000189,
        "meta_inclination": 42.9998,
        "meta_ra_of_asc_node": 117.9115,
        "meta_arg_of_pericenter": 254.748,
        "meta_mean_anomaly": 105.3171,
        "meta_ephemeris_type": 0,
        "meta_classification_type": "U",
        "meta_norad_cat_id": 66557,
        "meta_element_set_no": 999,
        "meta_rev_at_epoch": 471,
        "meta_bstar": 0.0029630032,
        "meta_mean_motion_dot": 0.00178011,
        "meta_mean_motion_ddot": 0,
        "tle_line1": "1 66557U 25268A   25347.30183076  .00178011  00000+0  29630-2 0  9990",
        "tle_line2": "2 66557  42.9998 117.9115 0001890 254.7480 105.3171 15.50660563  4712"
      },
      "geometry": {
        "type": "Point",
        "coordinates": [
          -65.35666991072979,
          0.4118835368275345
        ]
      }
    },
    {
      "type": "Feature",
      "properties": {
        "norad_id": 66558,
        "name": "STARLINK-35695",
        "group": "last-30-days",
        "lat": -0.5659116811856879,
        "lon": -64.31078571871093,
        "alt_km": 415.6700532944451,
        "timestamp": "2025-12-13T18:50:03.172625+00:00",
        "meta_object_name": "STARLINK-35695",
        "meta_object_id": "2025-268B",
        "meta_epoch": "2025-12-13T00:00:07.999776",
        "meta_mean_motion": 15.50654603,
        "meta_eccentricity": 0.00033998,
        "meta_inclination": 43,
        "meta_ra_of_asc_node": 119.6723,
        "meta_arg_of_pericenter": 271.8856,
        "meta_mean_anomaly": 203.7262,
        "meta_ephemeris_type": 0,
        "meta_classification_type": "U",
        "meta_norad_cat_id": 66558,
        "meta_element_set_no": 999,
        "meta_rev_at_epoch": 471,
        "meta_bstar": -0.0028094379,
        "meta_mean_motion_dot": -0.00162274,
        "meta_mean_motion_ddot": 0,
        "tle_line1": "1 66558U 25268B   25347.00009259 -.00162274  00000+0 -28094-2 0  9997",
        "tle_line2": "2 66558  43.0000 119.6723 0003399 271.8856 203.7262 15.50654603  4718"
      },
      "geometry": {
        "type": "Point",
        "coordinates": [
          -64.31078571871093,
          -0.5659116811856879
        ]
      }
    },
    {
      "type": "Feature",
      "properties": {
        "norad_id": 66559,
        "name": "STARLINK-35419",
        "group": "last-30-days",
        "lat": -2.1727451436349683,
        "lon": -62.589877651178746,
        "alt_km": 413.9283830085096,
        "timestamp": "2025-12-13T18:50:03.172635+00:00",
        "meta_object_name": "STARLINK-35419",
        "meta_object_id": "2025-268C",
        "meta_epoch": "2025-12-13T07:13:39.386784",
        "meta_mean_motion": 15.5068839,
        "meta_eccentricity": 0.0002656,
        "meta_inclination": 42.9989,
        "meta_ra_of_asc_node": 117.9068,
        "meta_arg_of_pericenter": 253.8719,
        "meta_mean_anomaly": 106.1849,
        "meta_ephemeris_type": 0,
        "meta_classification_type": "U",
        "meta_norad_cat_id": 66559,
        "meta_element_set_no": 999,
        "meta_rev_at_epoch": 471,
        "meta_bstar": 0.0020772155,
        "meta_mean_motion_dot": 0.00123956,
        "meta_mean_motion_ddot": 0,
        "tle_line1": "1 66559U 25268C   25347.30115031  .00123956  00000+0  20772-2 0  9994",
        "tle_line2": "2 66559  42.9989 117.9068 0002656 253.8719 106.1849 15.50688390  4716"
      },
      "geometry": {
        "type": "Point",
        "coordinates": [
          -62.589877651178746,
          -2.1727451436349683
        ]
      }
    },
    {
      "type": "Feature",
      "properties": {
        "norad_id": 66560,
        "name": "STARLINK-35411",
        "group": "last-30-days",
        "lat": -3.530843880639698,
        "lon": -61.131033646769616,
        "alt_km": 414.30369021876504,
        "timestamp": "2025-12-13T18:50:03.172651+00:00",
        "meta_object_name": "STARLINK-35411",
        "meta_object_id": "2025-268D",
        "meta_epoch": "2025-12-13T07:13:08.471136",
        "meta_mean_motion": 15.50664996,
        "meta_eccentricity": 0.00016874,
        "meta_inclination": 42.9992,
        "meta_ra_of_asc_node": 117.9044,
        "meta_arg_of_pericenter": 256.1982,
        "meta_mean_anomaly": 103.869,
        "meta_ephemeris_type": 0,
        "meta_classification_type": "U",
        "meta_norad_cat_id": 66560,
        "meta_element_set_no": 999,
        "meta_rev_at_epoch": 471,
        "meta_bstar": 0.0023770981,
        "meta_mean_motion_dot": 0.00142107,
        "meta_mean_motion_ddot": 0,
        "tle_line1": "1 66560U 25268D   25347.30079249  .00142107  00000+0  23771-2 0  9997",
        "tle_line2": "2 66560  42.9992 117.9044 0001687 256.1982 103.8690 15.50664996  4711"
      },
      "geometry": {
        "type": "Point",
        "coordinates": [
          -61.131033646769616,
          -3.530843880639698
        ]
      }
    },
    {
      "type": "Feature",
      "properties": {
        "norad_id": 66561,
        "name": "STARLINK-35305",
        "group": "last-30-days",
        "lat": -6.089817468160512,
        "lon": -58.36325646155806,
        "alt_km": 414.3731849404676,
        "timestamp": "2025-12-13T18:50:03.172661+00:00",
        "meta_object_name": "STARLINK-35305",
        "meta_object_id": "2025-268E",
        "meta_epoch": "2025-12-13T07:12:09.863424",
        "meta_mean_motion": 15.50653772,
        "meta_eccentricity": 0.00019076,
        "meta_inclination": 42.999,
        "meta_ra_of_asc_node": 117.8983,
        "meta_arg_of_pericenter": 248.8765,
        "meta_mean_anomaly": 111.1891,
        "meta_ephemeris_type": 0,
        "meta_classification_type": "U",
        "meta_norad_cat_id": 66561,
        "meta_element_set_no": 999,
        "meta_rev_at_epoch": 471,
        "meta_bstar": 0.0023845096,
        "meta_mean_motion_dot": 0.00142502,
        "meta_mean_motion_ddot": 0,
        "tle_line1": "1 66561U 25268E   25347.30011416  .00142502  00000+0  23845-2 0  9991",
        "tle_line2": "2 66561  42.9990 117.8983 0001907 248.8765 111.1891 15.50653772  4718"
      },
      "geometry": {
        "type": "Point",
        "coordinates": [
          -58.36325646155806,
          -6.089817468160512
        ]
      }
    },
    {
      "type": "Feature",
      "properties": {
        "norad_id": 66562,
        "name": "STARLINK-35579",
        "group": "last-30-days",
        "lat": -4.851909137691911,
        "lon": -59.70620752932831,
        "alt_km": 414.58670455642005,
        "timestamp": "2025-12-13T18:50:03.172671+00:00",
        "meta_object_name": "STARLINK-35579",
        "meta_object_id": "2025-268F",
        "meta_epoch": "2025-12-13T07:12:39.764736",
        "meta_mean_motion": 15.50680624,
        "meta_eccentricity": 0.00017316,
        "meta_inclination": 42.9998,
        "meta_ra_of_asc_node": 117.9016,
        "meta_arg_of_pericenter": 277.5188,
        "meta_mean_anomaly": 82.5475,
        "meta_ephemeris_type": 0,
        "meta_classification_type": "U",
        "meta_norad_cat_id": 66562,
        "meta_element_set_no": 999,
        "meta_rev_at_epoch": 471,
        "meta_bstar": 0.0036072311,
        "meta_mean_motion_dot": 0.00218067,
        "meta_mean_motion_ddot": 0,
        "tle_line1": "1 66562U 25268F   25347.30046024  .00218067  00000+0  36072-2 0  9991",
        "tle_line2": "2 66562  42.9998 117.9016 0001731 277.5188  82.5475 15.50680624  4713"
      },
      "geometry": {
        "type": "Point",
        "coordinates": [
          -59.70620752932831,
          -4.851909137691911
        ]
      }
    }
  ]
}